CUBEBUG-2 (LO-74)       
1 39440U 13066AA  26194.38680764  .00001928  00000+0  18138-3 0  9993
2 39440  97.8910 143.4812 0055889 301.4913  58.0852 14.93959550680906
FUNCUBE-1 (AO-73)       
1 39444U 13066AE  26194.43695186  .00003565  00000+0  22113-3 0  9994
2 39444  97.8287 166.4387 0038021 113.3139 247.2098 15.09805136683622
UWE-3                   
1 39446U 13066AG  26194.41549098  .00001852  00000+0  16195-3 0  9994
2 39446  97.8702 150.6713 0047494 230.6805 129.0202 14.97191819681502
UNISAT-6                
1 40012U 14033C   26194.42080228  .00001186  00000+0  13194-3 0  9992
2 40012  97.7906 346.6769 0044324 343.7133  16.2657 14.88362420650061
DUCHIFAT-1              
1 40021U 14033M   26193.68571964  .00110396  00000+0  89146-3 0  9995
2 40021  98.0440 256.5455 0002164 257.9613 102.1405 15.70510170659743
QB50P1                  
1 40025U 14033R   26193.52077436  .00005256  00000+0  25721-3 0  9994
2 40025  98.0964 206.4495 0010219 132.7489 227.4606 15.18640557656877
LILACSAT-2              
1 40908U 15049K   26194.51565442  .00012095  00000+0  20012-3 0  9998
2 40908  97.4627 232.3688 0008320 146.4565 213.7216 15.52318321599831
FOX-1A (AO-85)          
1 40967U 15058D   26194.37655269  .00001690  00000+0  15942-3 0  9999
2 40967  64.7723 197.5870 0132208  46.4986 314.7024 14.91081725117476
CAS-2T & KS-1Q          
1 41847U 16066G   26194.21207593  .00000617  00000+0  94682-4 0  9990
2 41847  98.3814 269.6505 0342350  50.7667 312.3386 14.44767960508557
RADFXSAT (FOX-1B)       
1 43017U 17073E   26194.06889025  .00003953  00000+0  17410-3 0  9998
2 43017  97.4673  60.7567 0148137 238.8927 119.7700 15.13044164469303
DIWATA-2B               
1 43678U 18084H   26194.51054928  .00001252  00000+0  10433-3 0  9998
2 43678  98.1218  31.8716 0012925  89.5817 270.6886 15.00559650420168
ES'HAIL 2               
1 43700U 18090A   26194.49483214  .00000140  00000+0  00000+0 0  9992
2 43700   0.0032 113.6818 0002154  45.9089 335.7013  1.00269984 27949
FOX-1CLIFF (AO-95)      
1 43770U 18099N   26194.15889186  .00007642  00000+0  28877-3 0  9999
2 43770  97.4377 254.3164 0007100 248.3656 111.6827 15.27248870417188
ITASAT                  
1 43786U 18099AE  26194.10440876  .00004125  00000+0  19803-3 0  9992
2 43786  97.4018 245.1017 0010797 258.8384 101.1638 15.19367142416843
JY1SAT (JO-97)          
1 43803U 18099AX  26192.68722269  .00009972  00000+0  30109-3 0  9999
2 43803  97.4124 255.6172 0006517 168.9842 191.1545 15.34443331417382
UWE-4                   
1 43880U 18111E   26193.76628622  .00027634  00000+0  53442-3 0  9997
2 43880  97.5844 123.3656 0005747 204.5147 155.5830 15.47716069414736
TIANYAN 01              
1 44881U 19093C   26194.49821781  .00000924  00000+0  11015-3 0  9994
2 44881  97.7529 266.0876 0013735   7.3004 352.8409 14.86561184355327
RS-44 & BREEZE-KM R/B   
1 44909U 19096E   26194.43025578  .00000001  00000+0 -46196-4 0  9998
2 44909  82.5240 322.2668 0218551  83.0989 279.4919 12.79748942305706
SALSAT                  
1 46495U 20068K   26194.50246523  .00004373  00000+0  15263-3 0  9999
2 46495  97.8854 199.1769 0008994 199.0887 161.0016 15.30157505319386
XW-3 (CAS-9)            
1 50466U 21131B   26194.50309487  .00000174  00000+0  67470-4 0  9996
2 50466  98.4990 286.7510 0004699  35.0042 325.1455 14.41380741238903
GREENCUBE (IO-117)      
1 53109U 22080E   26193.70867104 -.00000003  00000+0  00000+0 0  9996
2 53109  70.1415 289.3709 0009030 284.1311  75.8345  6.42583319 93700
UMKA 1 (RS40S)          
1 57172U 23091G   26194.47552432  .00003193  00000+0  14644-3 0  9998
2 57172  97.5041 253.0741 0013214  35.2171 324.9935 15.21109458168008
CUBESX-HSE 3 (RS42S)    
1 57178U 23091N   26194.50406639  .00007470  00000+0  24512-3 0  9992
2 57178  97.5085 260.4332 0009838   8.0771 352.0627 15.31857955168453
MONITOR-3 (RS58S)       
1 57180U 23091Q   26194.45679323  .00006131  00000+0  22445-3 0  9997
2 57180  97.5075 258.1024 0011184  15.8823 344.2765 15.28351231168300
MONITOR-4 (RS57S)       
1 57182U 23091S   26194.43438745  .00006136  00000+0  22405-3 0  9999
2 57182  97.5069 258.0524 0011186  16.2412 343.9184 15.28437681168305
MONITOR-2 (RS39S)       
1 57184U 23091U   26194.46439733  .00002656  00000+0  12953-3 0  9992
2 57184  97.5062 252.5790 0011571  29.7403 330.4487 15.19144884167947
SVYATOBOR 1 (RS60S)     
1 57187U 23091X   26194.47072328  .00005224  00000+0  19953-3 0  9990
2 57187  97.5082 258.4384 0008914  10.8501 349.2928 15.27045236168324
VIZARD-METEO (RS38S)    
1 57189U 23091Z   26194.45913002  .00010085  00000+0  28223-3 0  9994
2 57189  97.5086 264.4839 0005813 346.8106  13.2985 15.36839605168726
POLYTECH-UNIVERSE 3 (R*)
1 57191U 23091AB  26194.48802222  .00002819  00000+0  13624-3 0  9996
2 57191  97.5037 252.1065 0016203  43.3300 316.9205 15.19357021167949
UTMN 2 (RS27S)          
1 57203U 23091AP  26194.50746318  .00007142  00000+0  22876-3 0  9999
2 57203  97.5081 262.1024 0006879 356.5153   3.6039 15.32675813168573
